start=new Date('2023-01-21T00:00:00.000Z').valueOf();
sats=[{"MEAN_ELEMENT_THEORY":"SGP4","REF_FRAME":"TEME","TLE_LINE2":"2 51141  53.2163  34.5354 0000990  74.8651 285.2451 15.08871240 57158","OBJECT_TYPE":"PAYLOAD","NORAD_CAT_ID":"51141","OBJECT_NAME":"STARLINK-3179","APOAPSIS":"540.335","PERIOD":"95.436","LAUNCH_DATE":"2022-01-19","RCS_SIZE":"LARGE","EPHEMERIS_TYPE":"0","COUNTRY_CODE":"US","OBJECT_ID":"2022-005AP","SEMIMAJOR_AXIS":"6917.785","CENTER_NAME":"EARTH","RA_OF_ASC_NODE":"34.5354","MEAN_MOTION":"15.08871240","ECCENTRICITY":"0.00009900","TLE_LINE1":"1 51141U 22005AP  23020.73575529  .00017136  00000-0  10912-2 0  9994","INCLINATION":"53.2163","CLASSIFICATION_TYPE":"U","TIME_SYSTEM":"UTC","ARG_OF_PERICENTER":"74.8651","EPOCH":"2023-01-20T17:39:29.257056","MEAN_MOTION_DOT":"0.00017136","DECAY_DATE":null,"REV_AT_EPOCH":"5715","BSTAR":"0.00109120000000","PERIAPSIS":"538.965","ELEMENT_SET_NO":"999","FILE":"3756132","MEAN_ANOMALY":"285.2451","GP_ID":"223553497","SITE":"AFETR","MEAN_MOTION_DDOT":"0.0000000000000"},{"OBJECT_ID":"2022-005AQ","SEMIMAJOR_AXIS":"6917.884","CENTER_NAME":"EARTH","RA_OF_ASC_NODE":"24.5615","EPHEMERIS_TYPE":"0","COUNTRY_CODE":"US","PERIOD":"95.438","LAUNCH_DATE":"2022-01-19","RCS_SIZE":"LARGE","OBJECT_NAME":"STARLINK-3369","APOAPSIS":"541.112","TLE_LINE2":"2 51142  53.2154  24.5615 0001970  82.7962 277.3255 15.08838712 57320","OBJECT_TYPE":"PAYLOAD","NORAD_CAT_ID":"51142","MEAN_ELEMENT_THEORY":"SGP4","REF_FRAME":"TEME","SITE":"AFETR","MEAN_MOTION_DDOT":"0.0000000000000","MEAN_ANOMALY":"277.3255","GP_ID":"223553774","REV_AT_EPOCH":"5732","DECAY_DATE":null,"BSTAR":"0.00060191000000","PERIAPSIS":"538.387","ELEMENT_SET_NO":"999","FILE":"3756132","EPOCH":"2023-01-20T17:31:36.541056","MEAN_MOTION_DOT":"0.00009304","INCLINATION":"53.2154","CLASSIFICATION_TYPE":"U","ARG_OF_PERICENTER":"82.7962","TIME_SYSTEM":"UTC","MEAN_MOTION":"15.08838712","ECCENTRICITY":"0.00019700","TLE_LINE1":"1 51142U 22005AQ  23020.73028404  .00009304  00000-0  60191-3 0  9993"},{"EPHEMERIS_TYPE":"0","COUNTRY_CODE":"US","CENTER_NAME":"EARTH","OBJECT_ID":"2022-005AR","SEMIMAJOR_AXIS":"6917.881","RA_OF_ASC_NODE":"46.0912","PERIOD":"95.438","RCS_SIZE":"LARGE","LAUNCH_DATE":"2022-01-19","APOAPSIS":"540.760","OBJECT_NAME":"STARLINK-3184","REF_FRAME":"TEME","MEAN_ELEMENT_THEORY":"SGP4","NORAD_CAT_ID":"51143","OBJECT_TYPE":"PAYLOAD","TLE_LINE2":"2 51143  53.2155  46.0912 0001467 101.3330 258.7827 15.08839925 55849","GP_ID":"223547464","MEAN_ANOMALY":"258.7827","SITE":"AFETR","MEAN_MOTION_DDOT":"0.0000000000000","PERIAPSIS":"538.731","BSTAR":"0.00204590000000","REV_AT_EPOCH":"5584","DECAY_DATE":null,"FILE":"3755973","ELEMENT_SET_NO":"999","CLASSIFICATION_TYPE":"U","TIME_SYSTEM":"UTC","ARG_OF_PERICENTER":"101.3330","INCLINATION":"53.2155","EPOCH":"2023-01-20T09:20:03.469920","MEAN_MOTION_DOT":"0.00032423","MEAN_MOTION":"15.08839925","ECCENTRICITY":"0.00014670","TLE_LINE1":"1 51143U 22005AR  23020.38892905  .00032423  00000-0  20459-2 0  9990"},{"EPOCH":"2023-01-20T08:12:29.469600","MEAN_MOTION_DOT":"-0.00004207","INCLINATION":"53.2133","CLASSIFICATION_TYPE":"U","ARG_OF_PERICENTER":"58.3899","TIME_SYSTEM":"UTC","MEAN_MOTION":"15.08833163","ECCENTRICITY":"0.00020510","TLE_LINE1":"1 51144U 22005AS  23020.34200775 -.00004207  00000-0 -24642-3 0  9995","SITE":"AFETR","MEAN_MOTION_DDOT":"0.0000000000000","MEAN_ANOMALY":"301.7293","GP_ID":"223548215","REV_AT_EPOCH":"5598","DECAY_DATE":null,"PERIAPSIS":"538.347","BSTAR":"-0.00024642000000","ELEMENT_SET_NO":"999","FILE":"3755973","OBJECT_NAME":"STARLINK-3185","APOAPSIS":"541.185","TLE_LINE2":"2 51144  53.2133  36.3122 0002051  58.3899 301.7293 15.08833163 55981","OBJECT_TYPE":"PAYLOAD","NORAD_CAT_ID":"51144","MEAN_ELEMENT_THEORY":"SGP4","REF_FRAME":"TEME","SEMIMAJOR_AXIS":"6917.901","OBJECT_ID":"2022-005AS","CENTER_NAME":"EARTH","RA_OF_ASC_NODE":"36.3122","EPHEMERIS_TYPE":"0","COUNTRY_CODE":"US","PERIOD":"95.438","RCS_SIZE":"LARGE","LAUNCH_DATE":"2022-01-19"},{"PERIAPSIS":"538.999","BSTAR":"0.00200830000000","DECAY_DATE":null,"REV_AT_EPOCH":"5584","FILE":"3755973","ELEMENT_SET_NO":"999","GP_ID":"223547965","MEAN_ANOMALY":"283.1358","SITE":"AFETR","MEAN_MOTION_DDOT":"0.0000000000000","MEAN_MOTION":"15.08839373","ECCENTRICITY":"0.00010810","TLE_LINE1":"1 51145U 22005AT  23020.38524789  .00031818  00000-0  20083-2 0  9994","TIME_SYSTEM":"UTC","CLASSIFICATION_TYPE":"U","ARG_OF_PERICENTER":"76.9754","INCLINATION":"53.2150","EPOCH":"2023-01-20T09:14:45.417696","MEAN_MOTION_DOT":"0.00031818","PERIOD":"95.438","LAUNCH_DATE":"2022-01-19","RCS_SIZE":"MEDIUM","EPHEMERIS_TYPE":"0","COUNTRY_CODE":"US","CENTER_NAME":"EARTH","SEMIMAJOR_AXIS":"6917.882","OBJECT_ID":"2022-005AT","RA_OF_ASC_NODE":"46.1065","REF_FRAME":"TEME","MEAN_ELEMENT_THEORY":"SGP4","NORAD_CAT_ID":"51145","TLE_LINE2":"2 51145  53.2150  46.1065 0001081  76.9754 283.1358 15.08839373 55843","OBJECT_TYPE":"PAYLOAD","APOAPSIS":"540.495","OBJECT_NAME":"STARLINK-3365"},{"MEAN_ANOMALY":"282.8176","GP_ID":"223546715","SITE":"AFETR","MEAN_MOTION_DDOT":"0.0000000000000","DECAY_DATE":null,"REV_AT_EPOCH":"5599","PERIAPSIS":"538.452","BSTAR":"0.00123000000000","ELEMENT_SET_NO":"999","FILE":"3755973","INCLINATION":"53.2143","ARG_OF_PERICENTER":"77.3010","CLASSIFICATION_TYPE":"U","TIME_SYSTEM":"UTC","EPOCH":"2023-01-20T11:33:52.204608","MEAN_MOTION_DOT":"0.00019359","MEAN_MOTION":"15.08871760","ECCENTRICITY":"0.00017300","TLE_LINE1":"1 51146U 22005AU  23020.48185422  .00019359  00000-0  12300-2 0  9992","EPHEMERIS_TYPE":"0","COUNTRY_CODE":"US","OBJECT_ID":"2022-005AU","SEMIMAJOR_AXIS":"6917.783","CENTER_NAME":"EARTH","RA_OF_ASC_NODE":"35.6789","PERIOD":"95.436","RCS_SIZE":"LARGE","LAUNCH_DATE":"2022-01-19","OBJECT_NAME":"STARLINK-3354","APOAPSIS":"540.845","MEAN_ELEMENT_THEORY":"SGP4","REF_FRAME":"TEME","TLE_LINE2":"2 51146  53.2143  35.6789 0001730  77.3010 282.8176 15.08871760 55999","OBJECT_TYPE":"PAYLOAD","NORAD_CAT_ID":"51146"},{"APOAPSIS":"541.001","OBJECT_NAME":"STARLINK-3352","NORAD_CAT_ID":"51147","TLE_LINE2":"2 51147  53.2145  45.7813 0001815  76.4628 283.6566 15.08840110 56977","OBJECT_TYPE":"PAYLOAD","REF_FRAME":"TEME","MEAN_ELEMENT_THEORY":"SGP4","CENTER_NAME":"EARTH","OBJECT_ID":"2022-005AV","SEMIMAJOR_AXIS":"6917.880","RA_OF_ASC_NODE":"45.7813","EPHEMERIS_TYPE":"0","COUNTRY_CODE":"US","PERIOD":"95.438","RCS_SIZE":"LARGE","LAUNCH_DATE":"2022-01-19","EPOCH":"2023-01-20T11:00:44.836992","MEAN_MOTION_DOT":"0.00034140","CLASSIFICATION_TYPE":"U","ARG_OF_PERICENTER":"76.4628","TIME_SYSTEM":"UTC","INCLINATION":"53.2145","MEAN_MOTION":"15.08840110","ECCENTRICITY":"0.00018150","TLE_LINE1":"1 51147U 22005AV  23020.45885228  .00034140  00000-0  21528-2 0  9998","SITE":"AFETR","MEAN_MOTION_DDOT":"0.0000000000000","GP_ID":"223553526","MEAN_ANOMALY":"283.6566","BSTAR":"0.00215280000000","PERIAPSIS":"538.489","REV_AT_EPOCH":"5697","DECAY_DATE":null,"FILE":"3756127","ELEMENT_SET_NO":"999"},{"REF_FRAME":"TEME","MEAN_ELEMENT_THEORY":"SGP4","NORAD_CAT_ID":"51148","TLE_LINE2":"2 51148  53.2159  45.8270 0001507  91.3193 268.7971 15.08839710 55856","OBJECT_TYPE":"PAYLOAD","APOAPSIS":"540.789","OBJECT_NAME":"STARLINK-3359","PERIOD":"95.438","RCS_SIZE":"LARGE","LAUNCH_DATE":"2022-01-19","EPHEMERIS_TYPE":"0","COUNTRY_CODE":"US","CENTER_NAME":"EARTH","SEMIMAJOR_AXIS":"6917.881","OBJECT_ID":"2022-005AW","RA_OF_ASC_NODE":"45.8270","MEAN_MOTION":"15.08839710","ECCENTRICITY":"0.00015070","TLE_LINE1":"1 51148U 22005AW  23020.44780732  .00028218  00000-0  17840-2 0  9993","TIME_SYSTEM":"UTC","CLASSIFICATION_TYPE":"U","ARG_OF_PERICENTER":"91.3193","INCLINATION":"53.2159","EPOCH":"2023-01-20T10:44:50.552448","MEAN_MOTION_DOT":"0.00028218","PERIAPSIS":"538.704","BSTAR":"0.00178400000000","DECAY_DATE":null,"REV_AT_EPOCH":"5585","FILE":"3755973","ELEMENT_SET_NO":"999","GP_ID":"223547717","MEAN_ANOMALY":"268.7971","SITE":"AFETR","MEAN_MOTION_DDOT":"0.0000000000000"},{"RA_OF_ASC_NODE":"45.8344","CENTER_NAME":"EARTH","SEMIMAJOR_AXIS":"6917.761","OBJECT_ID":"2022-005AX","COUNTRY_CODE":"US","EPHEMERIS_TYPE":"0","LAUNCH_DATE":"2022-01-19","RCS_SIZE":"LARGE","PERIOD":"95.435","APOAPSIS":"540.787","OBJECT_NAME":"STARLINK-3360","NORAD_CAT_ID":"51149","TLE_LINE2":"2 51149  53.2163  45.8344 0001678 105.6217 254.4961 15.08878945 55853","OBJECT_TYPE":"PAYLOAD","REF_FRAME":"TEME","MEAN_ELEMENT_THEORY":"SGP4","MEAN_MOTION_DDOT":"0.0000000000000","SITE":"AFETR","GP_ID":"223548464","MEAN_ANOMALY":"254.4961","FILE":"3755973","ELEMENT_SET_NO":"999","BSTAR":"0.00179370000000","PERIAPSIS":"538.466","DECAY_DATE":null,"REV_AT_EPOCH":"5585","MEAN_MOTION_DOT":"0.00028405","EPOCH":"2023-01-20T10:39:32.853600","TIME_SYSTEM":"UTC","CLASSIFICATION_TYPE":"U","ARG_OF_PERICENTER":"105.6217","INCLINATION":"53.2163","TLE_LINE1":"1 51149U 22005AX  23020.44413025  .00028405  00000-0  17937-2 0  9997","MEAN_MOTION":"15.08878945","ECCENTRICITY":"0.00016780"},{"TLE_LINE1":"1 51150U 22005AY  23020.73208978  .00011094  00000-0  71394-3 0  9994","MEAN_MOTION":"15.08845515","ECCENTRICITY":"0.00016040","MEAN_MOTION_DOT":"0.00011094","EPOCH":"2023-01-20T17:34:12.556992","INCLINATION":"53.2155","CLASSIFICATION_TYPE":"U","TIME_SYSTEM":"UTC","ARG_OF_PERICENTER":"83.9246","ELEMENT_SET_NO":"999","FILE":"3756127","DECAY_DATE":null,"REV_AT_EPOCH":"5715","BSTAR":"0.00071394000000","PERIAPSIS":"538.619","MEAN_MOTION_DDOT":"0.0000000000000","SITE":"AFETR","MEAN_ANOMALY":"276.1929","GP_ID":"223553804","TLE_LINE2":"2 51150  53.2155  34.5564 0001604  83.9246 276.1929 15.08845515 57151","OBJECT_TYPE":"PAYLOAD","NORAD_CAT_ID":"51150","MEAN_ELEMENT_THEORY":"SGP4","REF_FRAME":"TEME","OBJECT_NAME":"STARLINK-3357","APOAPSIS":"540.838","LAUNCH_DATE":"2022-01-19","RCS_SIZE":"LARGE","PERIOD":"95.437","RA_OF_ASC_NODE":"34.5564","OBJECT_ID":"2022-005AY","SEMIMAJOR_AXIS":"6917.864","CENTER_NAME":"EARTH","COUNTRY_CODE":"US","EPHEMERIS_TYPE":"0"}];
